SIRION PATHFINDER-2     
1 43759U 18099B   26134.08675977  .00003566  00000+0  19853-3 0  9998
2 43759  97.4281 183.9584 0010178  64.4222 295.8061 15.14223250407463
CORVUS BC4              
1 43767U 18099K   26134.17976161  .00002749  00000+0  16269-3 0  9996
2 43767  97.4096 178.1583 0009995 115.0350 245.1919 15.12205968407263
M2 PATHFINDER           
1 45727U 20037E   26134.06293829  .00001536  00000+0  11415-3 0  9991
2 45727  97.8165 324.9132 0010038 267.9569  92.0507 15.04522923320363
NETSAT-4                
1 46504U 20068U   26133.95405609  .00012391  00000+0  28588-3 0  9997
2 46504  97.8613 139.4767 0007643  87.9049 272.3072 15.42692308310499
NETSAT-3                
1 46505U 20068V   26133.99840615  .00012654  00000+0  30405-3 0  9995
2 46505  97.8663 137.7861 0007521 100.3594 259.8499 15.41464262310411
NETSAT-1                
1 46506U 20068W   26133.95878587  .00008878  00000+0  27422-3 0  9999
2 46506  97.8748 132.4691 0006813 119.6117 240.5803 15.33779633310054
NETSAT-2                
1 46507U 20068X   26133.97276656  .00015779  00000+0  34200-3 0  9991
2 46507  97.8631 139.2762 0006218 108.8781 251.3141 15.44502126310458
GREENCUBE (IO-117)      
1 53109U 22080E   26133.47737909 -.00000003  00000+0  00000+0 0  9993
2 53109  70.1436 310.3212 0008810 297.6025  62.3740  6.42583324 89838
SITRO-AIS 5 (KATYS)     
1 57176U 23091L   26134.17038590  .00007788  00000+0  28186-3 0  9997
2 57176  97.5083 197.7647 0010843 215.1549 144.8976 15.28641702159149
SITRO-AIS 6 (CHIRKIN)   
1 57192U 23091AC  26134.20371191  .00004195  00000+0  16952-3 0  9993
2 57192  97.5091 197.0935 0010973 218.6482 141.3971 15.25259618159108
SITRO-AIS 8 (ANOKHIN)   
1 57193U 23091AD  26134.17987397  .00008755  00000+0  29288-3 0  9993
2 57193  97.5078 199.2289 0010154 210.3183 149.7472 15.31177132159248
SITRO-AIS 7 (FARTUSHNIY)
1 57194U 23091AE  26134.13447595  .00003798  00000+0  15513-3 0  9999
2 57194  97.5087 196.8662 0010792 220.1099 139.9343 15.24964920159081
SITRO-AIS 10 (BURDAEV)  
1 57199U 23091AK  26134.15499411  .00013512  00000+0  37177-3 0  9995
2 57199  97.5101 203.9177 0007155 182.0402 178.0814 15.37278933159530
SITRO-AIS 9 (SHCHUKIN)  
1 57201U 23091AM  26134.17104321  .00012143  00000+0  33928-3 0  9993
2 57201  97.5099 203.6898 0007364 182.8159 177.3044 15.36825160159521
SITRO-AIS 12 (SMIRENNIY)
1 57204U 23091AQ  26134.16801823  .00012434  00000+0  34422-3 0  9999
2 57204  97.5111 204.1327 0007169 176.7659 183.3633 15.37110272159547
SITRO-AIS 11 (SHEFFER)  
1 57208U 23091AU  26134.19047184  .00013079  00000+0  35737-3 0  9994
2 57208  97.5109 204.3816 0007112 176.5116 183.6179 15.37502904159564
SITRO-AIS 25            
1 59066U 24039R   26134.20406881  .00002991  00000+0  23329-3 0  9991
2 59066  95.3921 211.7437 0147427  87.0485 274.7601 14.93267581119654
SITRO-AIS 26            
1 59067U 24039S   26134.20086797  .00002900  00000+0  22731-3 0  9998
2 59067  95.3922 211.6460 0147758  87.5899 274.2234 14.93070464119640
SITRO-AIS 27            
1 59068U 24039T   26134.18056016  .00003070  00000+0  23836-3 0  9993
2 59068  95.3925 211.8880 0146936  86.3581 275.4434 14.93482970119660
SITRO-AIS 28            
1 59071U 24039U   26134.15878808  .00003538  00000+0  27415-3 0  9991
2 59071  95.3925 211.9185 0146803  86.3130 275.4869 14.93516661119663
GRBBETA                 
1 60237U 24128C   26133.90430372  .00002765  00000+0  19753-3 0  9995
2 60237  61.9905 336.5219 0045211 127.6054 232.9156 15.06346661101106
OOV-CUBE (TUBSAT-30)    
1 60240U 24128F   26134.05196104  .00001457  00000+0  12208-3 0  9993
2 60240  61.9949 344.5856 0048830 126.3419 234.2194 15.02592557100980
ROBUSTA-3A (MEDITERRAN*)
1 60243U 24128J   26134.12903919  .00005248  00000+0  31713-3 0  9998
2 60243  61.9867 328.6362 0045854 121.4904 239.0684 15.11118441101271
LASARSAT                
1 62391U 24247Q   26133.32516526  .00019182  00000+0  41582-3 0  9998
2 62391  44.9736  97.7722 0004763 121.9276 238.2076 15.44166921 77920
CROCUBE                 
1 62394U 24247T   26133.94365514  .00027024  00000+0  55089-3 0  9999
2 62394  44.9715  92.1524 0004487 130.7673 229.3607 15.45786748 78042
FORESAIL-1 PRIME        
1 66778U 25276DS  26134.12641385  .00003043  00000+0  15136-3 0  9990
2 66778  97.4210 208.0275 0001900 183.8577 176.2643 15.18375007 25230
KNACKSAT-2              
1 67683U 98067XZ  26134.10680657  .00032975  00000+0  45255-3 0  9998
2 67683  51.6274 105.4891 0012479  72.8563 287.3794 15.56939456 14962
